[{"OBJECT_ID":"2000-046B","OBJECT_NAME":"NILESAT 102","NORAD_CAT_ID":"26470","OBJECT_TYPE":"PAYLOAD","PERIOD":"1436.091","INCLINATION":"1.0652","APOGEE":"35810.118","PERIGEE":"35762.869","ECCENTRICITY":"0.0005603","MEAN_MOTION":"1.00272152","TLE_LINE1":"1 26470U 00046B   16239.13452203 -.00000086  00000-0  00000+0 0  9994","TLE_LINE2":"2 26470   1.0652  84.8581 0005603 104.8834 186.5051  1.00272152 58729","LAUNCH_DATE":"2000-08-17","LAUNCH_SITE":"FRENCH GUIANA","OWNER":"EGYPT","ORBIT_TYPE":"Geosynchronous","OPERATIONAL_STATUS":"Operational","satInfo":{"lng":64.53254721484375,"lat":2.747801330494766,"elevation":-5.8784979309166046,"azimuth":250.46745278515624,"range":42348.773679102596,"height":35796.38028601531,"velocity":3.0751862721978944},"x":241,"y":-121,"dx":1.3223248948566386,"dy":2.776369478501873},{"OBJECT_ID":"2000-054A","OBJECT_NAME":"ASTRA 2B","NORAD_CAT_ID":"26494","OBJECT_TYPE":"PAYLOAD","PERIOD":"1436.132","INCLINATION":"1.6058","APOGEE":"35809.118","PERIGEE":"35765.460","ECCENTRICITY":"0.0005177","MEAN_MOTION":"1.00269316","TLE_LINE1":"1 26494U 00054A   16238.78927867 +.00000124 +00000-0 +00000-0 0  9995","TLE_LINE2":"2 26494 001.6058 079.9178 0005177 038.7572 178.9249 01.00269316010964","LAUNCH_DATE":"2000-09-14","LAUNCH_SITE":"FRENCH GUIANA","OWNER":"SOCIÉTÉ EUROPÉENNE DES SATELLITES","ORBIT_TYPE":"Geosynchronous","OPERATIONAL_STATUS":"Operational","satInfo":{"lng":96.74081477794597,"lat":1.1605107387553226,"elevation":-7.442261464446319,"azimuth":218.25918522205404,"range":42495.97310191318,"height":35768.48183118666,"velocity":3.075389206362906},"x":265,"y":33,"dx":-0.3609836333283437,"dy":3.0541299230848926},{"OBJECT_ID":"2000-054B","OBJECT_NAME":"AMC-7 (GE-7)","NORAD_CAT_ID":"26495","OBJECT_TYPE":"PAYLOAD","PERIOD":"1436.105","INCLINATION":"0.0028","APOGEE":"35792.832","PERIGEE":"35780.714","ECCENTRICITY":"0.0001437","MEAN_MOTION":"1.00271156","TLE_LINE1":"1 26495U 00054B   16238.44662912  .00000061  00000-0  00000+0 0  9995","TLE_LINE2":"2 26495   0.0028  93.5608 0001437 113.0378 153.3940  1.00271156 58334","LAUNCH_DATE":"2000-09-14","LAUNCH_SITE":"FRENCH GUIANA","OWNER":"SOCIÉTÉ EUROPÉENNE DES SATELLITES","ORBIT_TYPE":"Geosynchronous","OPERATIONAL_STATUS":"Operational","satInfo":{"lng":-117.18619933708386,"lat":-2.1173108891201293,"elevation":-10.638418495568885,"azimuth":72.18619933708385,"range":42863.23090481472,"height":35777.102642741746,"velocity":3.074849638164115},"x":-238,"y":129,"dx":-1.4048486265604412,"dy":-2.7351600746152376},{"OBJECT_ID":"2000-060A","OBJECT_NAME":"NSAT 110","NORAD_CAT_ID":"26559","OBJECT_TYPE":"PAYLOAD","PERIOD":"1436.018","INCLINATION":"0.0413","APOGEE":"35787.181","PERIGEE":"35782.948","ECCENTRICITY":"5.02e-05","MEAN_MOTION":"1.00277249","TLE_LINE1":"1 26559U 00060A   16239.41875215 -.00000380  00000-0  00000+0 0  9998","TLE_LINE2":"2 26559   0.0413 288.1903 0000502  63.0790 244.6471  1.00277249 58193","LAUNCH_DATE":"2000-10-06","LAUNCH_SITE":"FRENCH GUIANA","OWNER":"JAPAN","ORBIT_TYPE":"Geosynchronous","OPERATIONAL_STATUS":"Operational","satInfo":{"lng":52.3221367280223,"lat":-2.209367814414411,"elevation":-10.72245487536918,"azimuth":262.6778632719777,"range":42900.24954242336,"height":35804.39797236846,"velocity":3.0739639222453152},"x":211,"y":-172,"dx":1.878872219742377,"dy":2.432918695136801},{"OBJECT_ID":"2000-061A","OBJECT_NAME":"HETE 2","NORAD_CAT_ID":"26561","OBJECT_TYPE":"PAYLOAD","PERIOD":"95.570","INCLINATION":"1.9492","APOGEE":"559.105","PERIGEE":"533.248","ECCENTRICITY":"0.0018671","MEAN_MOTION":"15.06738322","TLE_LINE1":"1 26561U 00061A   16238.15073037  .00001569  00000-0  44308-4 0  9997","TLE_LINE2":"2 26561   1.9492 119.7553 0018671 190.6947 169.2698 15.06738322870112","LAUNCH_DATE":"2000-10-09","LAUNCH_SITE":"Kwajalein","OWNER":"UNITED STATES OF AMERICA","ORBIT_TYPE":"Low Earth Orbit","OPERATIONAL_STATUS":"Nonoperational","satInfo":{"lng":-132.6291126110011,"lat":-1.6239427612282809,"elevation":-43.47493919990454,"azimuth":87.62911261100106,"range":9522.482374640525,"height":534.8534438425659,"velocity":7.600384597348335},"x":-3,"y":3,"dx":-5.147359718052933,"dy":-5.592006255412796},{"OBJECT_ID":"2000-061B","OBJECT_NAME":"PEGASUS R/B","NORAD_CAT_ID":"26562","OBJECT_TYPE":"ROCKET BODY","PERIOD":"95.478","INCLINATION":"1.9622","APOGEE":"553.578","PERIGEE":"529.844","ECCENTRICITY":"0.0017149","MEAN_MOTION":"15.08197064","TLE_LINE1":"1 26562U 00061B   16239.18925260  .00001548  00000-0  40676-4 0  9997","TLE_LINE2":"2 26562   1.9622  24.8825 0017149  14.4585 345.5947 15.08197064870756","LAUNCH_DATE":"2000-10-09","LAUNCH_SITE":"Kwajalein","OWNER":"UNITED STATES OF AMERICA","ORBIT_TYPE":"Low Earth Orbit","OPERATIONAL_STATUS":"N/A, derelict rocket body","satInfo":{"lng":33.85084862954778,"lat":1.0318963582530467,"elevation":-42.01408474172851,"azimuth":281.1491513704522,"range":9312.920054375592,"height":542.2946668683489,"velocity":7.589903954253246},"x":2,"y":-4,"dx":6.303342697909593,"dy":4.227826021432159},{"OBJECT_ID":"2000-067A","OBJECT_NAME":"AMC-6 (GE-6)","NORAD_CAT_ID":"26580","OBJECT_TYPE":"PAYLOAD","PERIOD":"1436.123","INCLINATION":"0.0479","APOGEE":"35799.084","PERIGEE":"35775.168","ECCENTRICITY":"0.0002836","MEAN_MOTION":"1.00269895","TLE_LINE1":"1 26580U 00067A   16239.27101584 -.00000287  00000-0  00000+0 0  9990","TLE_LINE2":"2 26580   0.0479 295.8019 0002836 240.9369 183.7494  1.00269895 58075","LAUNCH_DATE":"2000-10-21","LAUNCH_SITE":"TYURATAM MISSILE AND SPACE COMPLEX","OWNER":"SOCIÉTÉ EUROPÉENNE DES SATELLITES","ORBIT_TYPE":"Geosynchronous","OPERATIONAL_STATUS":"Operational","satInfo":{"lng":-89.91361524769144,"lat":1.8293022956803804,"elevation":-6.77786734049802,"azimuth":44.913615247691446,"range":42464.815842241645,"height":35811.37903796483,"velocity":3.0733960718023945},"x":-268,"y":0,"dx":0.004633752434821455,"dy":-3.0733925786512795},{"OBJECT_ID":"2000-072A","OBJECT_NAME":"INTELSAT 1R (PAS 1R)","NORAD_CAT_ID":"26608","OBJECT_TYPE":"PAYLOAD","PERIOD":"1436.131","INCLINATION":"0.0525","APOGEE":"35791.972","PERIGEE":"35782.595","ECCENTRICITY":"0.0001112","MEAN_MOTION":"1.00269335","TLE_LINE1":"1 26608U 00072A   16238.09643770 -.00000308  00000-0  00000+0 0  9998","TLE_LINE2":"2 26608   0.0525 293.1629 0001112 275.7967 109.4630  1.00269335 57729","LAUNCH_DATE":"2000-11-16","LAUNCH_SITE":"FRENCH GUIANA","OWNER":"UNITED STATES OF AMERICA","ORBIT_TYPE":"Geosynchronous","OPERATIONAL_STATUS":"Operational","satInfo":{"lng":-52.32487810737576,"lat":0.7350684907503419,"elevation":-7.853237508743618,"azimuth":7.324878107375758,"range":42570.122118759275,"height":35796.20037109248,"velocity":3.0741923626727696},"x":-212,"y":-172,"dx":1.8788954309348158,"dy":-2.4331893971345218},{"OBJECT_ID":"2000-081B","OBJECT_NAME":"AMC-8 (GE-8)","NORAD_CAT_ID":"26639","OBJECT_TYPE":"PAYLOAD","PERIOD":"1436.048","INCLINATION":"0.0661","APOGEE":"35795.848","PERIGEE":"35775.449","ECCENTRICITY":"0.0002419","MEAN_MOTION":"1.00275168","TLE_LINE1":"1 26639U 00081B   16239.27202251  .00000076  00000-0  00000+0 0  9999","TLE_LINE2":"2 26639   0.0661 287.8686 0002419 211.2755 154.7363  1.00275168 57354","LAUNCH_DATE":"2000-12-20","LAUNCH_SITE":"FRENCH GUIANA","OWNER":"SOCIÉTÉ EUROPÉENNE DES SATELLITES","ORBIT_TYPE":"Geosynchronous","OPERATIONAL_STATUS":"Operational","satInfo":{"lng":-121.02882016049608,"lat":2.174122326498796,"elevation":-6.445928051091411,"azimuth":76.02882016049605,"range":42394.63428524775,"height":35778.80474535655,"velocity":3.074679335384547},"x":-229,"y":145,"dx":-1.5849024069441577,"dy":-2.6347177032660207},{"OBJECT_ID":"2001-002A","OBJECT_NAME":"TURKSAT 2A","NORAD_CAT_ID":"26666","OBJECT_TYPE":"PAYLOAD","PERIOD":"1436.177","INCLINATION":"0.536","APOGEE":"35802.547","PERIGEE":"35773.782","ECCENTRICITY":"0.0003411","MEAN_MOTION":"1.00266192","TLE_LINE1":"1 26666U 01002A   16238.19527586  .00000000  00000-0  10000-3 0  9996","TLE_LINE2":"2 26666   0.5360  84.7113 0003411  53.4730 307.8437  1.00266192 57244","LAUNCH_DATE":"2001-01-10","LAUNCH_SITE":"FRENCH GUIANA","OWNER":"TURKEY","ORBIT_TYPE":"Geosynchronous","OPERATIONAL_STATUS":"Operational","satInfo":{"lng":97.9544628719452,"lat":1.0225554835101132,"elevation":-7.577740203417068,"azimuth":217.04553712805475,"range":42509.38092142399,"height":35766.7079189071,"velocity":3.0756121246770713},"x":264,"y":39,"dx":-0.42562171775480206,"dy":3.046019713468063},{"OBJECT_ID":"2001-011A","OBJECT_NAME":"EUTE 28A (EB 1)","NORAD_CAT_ID":"26719","OBJECT_TYPE":"PAYLOAD","PERIOD":"1436.141","INCLINATION":"0.0695","APOGEE":"35799.570","PERIGEE":"35775.384","ECCENTRICITY":"0.0002868","MEAN_MOTION":"1.00268644","TLE_LINE1":"1 26719U 01011A   16238.08104793 +.00000130 +00000-0 +00000-0 0  9994","TLE_LINE2":"2 26719 000.0695 336.7071 0002868 195.5082 223.8190 01.00268644056656","LAUNCH_DATE":"2001-03-08","LAUNCH_SITE":"FRENCH GUIANA","OWNER":"EUROPEAN TELECOMMUNICATIONS SATELLITE ORGANIZATION (EUTELSAT)","ORBIT_TYPE":"Geosynchronous","OPERATIONAL_STATUS":"Operational","satInfo":{"lng":85.5952409000366,"lat":-0.9396649195879545,"elevation":-9.497600711577572,"azimuth":229.4047590999634,"range":42709.447937850295,"height":35751.53159833431,"velocity":3.076381129109653},"x":266,"y":-22,"dx":0.23627174670548567,"dy":3.0672946570635697}]